<?xml version="1.0" encoding="UTF-8"?>
<gpx version="1.1" creator="0run-test" xmlns="http://www.topografix.com/GPX/1/1">
  <trk><name>Short</name><trkseg>
    <trkpt lat="38.7100" lon="-9.1400"><ele>10</ele><time>2026-07-20T07:00:00Z</time>
      <extensions><gpxtpx:TrackPointExtension xmlns:gpxtpx="x"><gpxtpx:hr>140</gpxtpx:hr></gpxtpx:TrackPointExtension></extensions></trkpt>
    <trkpt lat="38.7150" lon="-9.1400"><ele>14</ele><time>2026-07-20T07:03:00Z</time>
      <extensions><gpxtpx:TrackPointExtension xmlns:gpxtpx="x"><gpxtpx:hr>150</gpxtpx:hr></gpxtpx:TrackPointExtension></extensions></trkpt>
    <trkpt lat="38.7200" lon="-9.1400"><ele>12</ele><time>2026-07-20T07:06:00Z</time>
      <extensions><gpxtpx:TrackPointExtension xmlns:gpxtpx="x"><gpxtpx:hr>155</gpxtpx:hr></gpxtpx:TrackPointExtension></extensions></trkpt>
  </trkseg></trk>
</gpx>
